[
    {
        "Altitude(m)": 579454.5131331324,
        "Argument of Periapsis(deg)": -0.022603160782972403,
        "Eccentricity": 0.0,
        "Inclination(deg)": 97.0,
        "Latitude(deg)": -41.7260742863751,
        "Longitude(deg)": 71.40328001322328,
        "Mean Anomaly(deg)": 221.85904326918748,
        "RAAN(deg)": 0.005947053618510769,
        "Satellite Name": "Starlink Shell 3 1614",
        "Satellite Number": 1614,
        "Semi-Major Axis(m)": 6938478.169268562,
        "Time(s)": 570
    },
    {
        "Altitude(m)": 579709.1007849989,
        "Argument of Periapsis(deg)": -0.02299970746337543,
        "Eccentricity": 0.0,
        "Inclination(deg)": 97.0,
        "Latitude(deg)": -42.342241870123885,
        "Longitude(deg)": 71.22437301775352,
        "Mean Anomaly(deg)": 222.48451946689252,
        "RAAN(deg)": 0.00605138789251973,
        "Satellite Name": "Starlink Shell 3 1614",
        "Satellite Number": 1614,
        "Semi-Major Axis(m)": 6938478.169268562,
        "Time(s)": 580
    },
    {
        "Altitude(m)": 579963.4270076831,
        "Argument of Periapsis(deg)": -0.023396254143778456,
        "Eccentricity": 0.0,
        "Inclination(deg)": 97.0,
        "Latitude(deg)": -42.958147848302175,
        "Longitude(deg)": 71.04277182344678,
        "Mean Anomaly(deg)": 223.10999566459756,
        "RAAN(deg)": 0.0061557221665286925,
        "Satellite Name": "Starlink Shell 3 1614",
        "Satellite Number": 1614,
        "Semi-Major Axis(m)": 6938478.169268562,
        "Time(s)": 590
    },
    {
        "Altitude(m)": 580217.3921219088,
        "Argument of Periapsis(deg)": -0.023792800824181483,
        "Eccentricity": 0.0,
        "Inclination(deg)": 97.0,
        "Latitude(deg)": -43.57378525897612,
        "Longitude(deg)": 70.85836360681373,
        "Mean Anomaly(deg)": 223.73547186230263,
        "RAAN(deg)": 0.0062600564405376515,
        "Satellite Name": "Starlink Shell 3 1614",
        "Satellite Number": 1614,
        "Semi-Major Axis(m)": 6938478.169268562,
        "Time(s)": 600
    },
    {
        "Altitude(m)": 580470.8964476555,
        "Argument of Periapsis(deg)": -0.024189347504584503,
        "Eccentricity": 0.0,
        "Inclination(deg)": 97.0,
        "Latitude(deg)": -44.18914682033604,
        "Longitude(deg)": 70.67102975775376,
        "Mean Anomaly(deg)": 224.36094806000767,
        "RAAN(deg)": 0.006364390714546612,
        "Satellite Name": "Starlink Shell 3 1614",
        "Satellite Number": 1614,
        "Semi-Major Axis(m)": 6938478.169268562,
        "Time(s)": 610
    },
    {
        "Altitude(m)": 580723.8403489493,
        "Argument of Periapsis(deg)": -0.02458589418498753,
        "Eccentricity": 0.0,
        "Inclination(deg)": 97.0,
        "Latitude(deg)": -44.804224906244386,
        "Longitude(deg)": 70.48064599797178,
        "Mean Anomaly(deg)": 224.9864242577127,
        "RAAN(deg)": 0.0064687249885555746,
        "Satellite Name": "Starlink Shell 3 1614",
        "Satellite Number": 1614,
        "Semi-Major Axis(m)": 6938478.169268562,
        "Time(s)": 620
    },
    {
        "Altitude(m)": 580976.124278611,
        "Argument of Periapsis(deg)": -0.024982440865390556,
        "Eccentricity": 0.0,
        "Inclination(deg)": 97.0,
        "Latitude(deg)": -45.41901151979469,
        "Longitude(deg)": 70.28708078775449,
        "Mean Anomaly(deg)": 225.61190045541775,
        "RAAN(deg)": 0.006573059262564535,
        "Satellite Name": "Starlink Shell 3 1614",
        "Satellite Number": 1614,
        "Semi-Major Axis(m)": 6938478.169268562,
        "Time(s)": 630
    },
    {
        "Altitude(m)": 581227.6488229091,
        "Argument of Periapsis(deg)": -0.025378987545793576,
        "Eccentricity": 0.0,
        "Inclination(deg)": 97.0,
        "Latitude(deg)": -46.033498264690635,
        "Longitude(deg)": 70.09019622065902,
        "Mean Anomaly(deg)": 226.2373766531228,
        "RAAN(deg)": 0.006677393536573496,
        "Satellite Name": "Starlink Shell 3 1614",
        "Satellite Number": 1614,
        "Semi-Major Axis(m)": 6938478.169268562,
        "Time(s)": 640
    },
    {
        "Altitude(m)": 581478.3147460966,
        "Argument of Periapsis(deg)": -0.025775534226196602,
        "Eccentricity": 0.0,
        "Inclination(deg)": 97.0,
        "Latitude(deg)": -46.64767631424257,
        "Longitude(deg)": 69.88984636003988,
        "Mean Anomaly(deg)": 226.86285285082784,
        "RAAN(deg)": 0.006781727810582457,
        "Satellite Name": "Starlink Shell 3 1614",
        "Satellite Number": 1614,
        "Semi-Major Axis(m)": 6938478.169268562,
        "Time(s)": 650
    },
    {
        "Altitude(m)": 581728.0230348054,
        "Argument of Periapsis(deg)": -0.026172080906599626,
        "Eccentricity": 0.0,
        "Inclination(deg)": 97.0,
        "Latitude(deg)": -47.261536377745024,
        "Longitude(deg)": 69.68587721631955,
        "Mean Anomaly(deg)": 227.4883290485329,
        "RAAN(deg)": 0.006886062084591417,
        "Satellite Name": "Starlink Shell 3 1614",
        "Satellite Number": 1614,
        "Semi-Major Axis(m)": 6938478.169268562,
        "Time(s)": 660
    },
    {
        "Altitude(m)": 581976.67494232,
        "Argument of Periapsis(deg)": -0.026568627587002652,
        "Eccentricity": 0.0,
        "Inclination(deg)": 97.0,
        "Latitude(deg)": -47.875068663982155,
        "Longitude(deg)": 69.47812668013528,
        "Mean Anomaly(deg)": 228.11380524623794,
        "RAAN(deg)": 0.006990396358600378,
        "Satellite Name": "Starlink Shell 3 1614",
        "Satellite Number": 1614,
        "Semi-Major Axis(m)": 6938478.169268562,
        "Time(s)": 670
    },
    {
        "Altitude(m)": 582224.1720326429,
        "Argument of Periapsis(deg)": -0.02696517426740568,
        "Eccentricity": 0.0,
        "Inclination(deg)": 97.0,
        "Latitude(deg)": -48.48826284157415,
        "Longitude(deg)": 69.26642289416061,
        "Mean Anomaly(deg)": 228.73928144394299,
        "RAAN(deg)": 0.00709473063260934,
        "Satellite Name": "Starlink Shell 3 1614",
        "Satellite Number": 1614,
        "Semi-Major Axis(m)": 6938478.169268562,
        "Time(s)": 680
    },
    {
        "Altitude(m)": 582470.4162243914,
        "Argument of Periapsis(deg)": -0.0273617209478087,
        "Eccentricity": 0.0,
        "Inclination(deg)": 97.0,
        "Latitude(deg)": -49.101107995844934,
        "Longitude(deg)": 69.05058408452533,
        "Mean Anomaly(deg)": 229.364757641648,
        "RAAN(deg)": 0.007199064906618299,
        "Satellite Name": "Starlink Shell 3 1614",
        "Satellite Number": 1614,
        "Semi-Major Axis(m)": 6938478.169268562,
        "Time(s)": 690
    },
    {
        "Altitude(m)": 582715.3098344814,
        "Argument of Periapsis(deg)": -0.027758267628211725,
        "Eccentricity": 0.0,
        "Inclination(deg)": 97.0,
        "Latitude(deg)": -49.71359258185481,
        "Longitude(deg)": 68.83041833359788,
        "Mean Anomaly(deg)": 229.99023383935304,
        "RAAN(deg)": 0.00730339918062726,
        "Satellite Name": "Starlink Shell 3 1614",
        "Satellite Number": 1614,
        "Semi-Major Axis(m)": 6938478.169268562,
        "Time(s)": 700
    },
    {
        "Altitude(m)": 582958.7556215797,
        "Argument of Periapsis(deg)": -0.028154814308614752,
        "Eccentricity": 0.0,
        "Inclination(deg)": 97.0,
        "Latitude(deg)": -50.325704373201226,
        "Longitude(deg)": 68.60572177527735,
        "Mean Anomaly(deg)": 230.61571003705808,
        "RAAN(deg)": 0.0074077334546362224,
        "Satellite Name": "Starlink Shell 3 1614",
        "Satellite Number": 1614,
        "Semi-Major Axis(m)": 6938478.169268562,
        "Time(s)": 710
    },
    {
        "Altitude(m)": 583200.6568292757,
        "Argument of Periapsis(deg)": -0.02855136098901778,
        "Eccentricity": 0.0,
        "Inclination(deg)": 97.0,
        "Latitude(deg)": -50.937430406139725,
        "Longitude(deg)": 68.37627823185667,
        "Mean Anomaly(deg)": 231.24118623476312,
        "RAAN(deg)": 0.007512067728645183,
        "Satellite Name": "Starlink Shell 3 1614",
        "Satellite Number": 1614,
        "Semi-Major Axis(m)": 6938478.169268562,
        "Time(s)": 720
    },
    {
        "Altitude(m)": 583440.9172290568,
        "Argument of Periapsis(deg)": -0.028947907669420805,
        "Eccentricity": 0.0,
        "Inclination(deg)": 97.0,
        "Latitude(deg)": -51.54875691852401,
        "Longitude(deg)": 68.14185877211709,
        "Mean Anomaly(deg)": 231.8666624324682,
        "RAAN(deg)": 0.007616402002654144,
        "Satellite Name": "Starlink Shell 3 1614",
        "Satellite Number": 1614,
        "Semi-Major Axis(m)": 6938478.169268562,
        "Time(s)": 730
    },
    {
        "Altitude(m)": 583679.4411629188,
        "Argument of Periapsis(deg)": -0.029344454349823825,
        "Eccentricity": 0.0,
        "Inclination(deg)": 97.0,
        "Latitude(deg)": -52.15966928300651,
        "Longitude(deg)": 67.90221966942246,
        "Mean Anomaly(deg)": 232.49213863017323,
        "RAAN(deg)": 0.0077207362766631045,
        "Satellite Name": "Starlink Shell 3 1614",
        "Satellite Number": 1614,
        "Semi-Major Axis(m)": 6938478.169268562,
        "Time(s)": 740
    },
    {
        "Altitude(m)": 583916.1335857083,
        "Argument of Periapsis(deg)": -0.029741001030226845,
        "Eccentricity": 0.0,
        "Inclination(deg)": 97.0,
        "Latitude(deg)": -52.770151933861364,
        "Longitude(deg)": 67.6571017761799,
        "Mean Anomaly(deg)": 233.11761482787827,
        "RAAN(deg)": 0.007825070550672067,
        "Satellite Name": "Starlink Shell 3 1614",
        "Satellite Number": 1614,
        "Semi-Major Axis(m)": 6938478.169268562,
        "Time(s)": 750
    }
]